NORAD_CAT_ID,OBJECT_NAME,OBJECT_TYPE,EPOCH,MEAN_MOTION,ECCENTRICITY,INCLINATION,RA_OF_ASC_NODE,ARG_OF_PERICENTER,MEAN_ANOMALY,BSTAR,MEAN_MOTION_DOT,MEAN_MOTION_DDOT,TLE_LINE0,TLE_LINE1,TLE_LINE2,SEMIMAJOR_AXIS,PERIOD,APOGEE,PERIGEE,DECAYED
53404.0,STARLINK-4509,PAYLOAD,2023-04-11 00:54:08,15.08850763,0.0002896,53.2144,209.0462,64.3731,295.756,0.00015817,2.23e-05,0.0,0 STARLINK-4509,1 53404U 22097S   23101.03759585  .00002230  00000-0  15817-3 0  9997,2 53404  53.2144 209.0462 0002896  64.3731 295.7560 15.08850763 37589,6917.847,95.437,541.716,537.709,0.0
53404.0,STARLINK-4509,PAYLOAD,2023-04-11 12:01:49,15.0885838,0.0001026,53.2157,206.9588,96.3603,263.7506,0.00041954,6.399e-05,0.0,0 STARLINK-4509,1 53404U 22097S   23101.50126790  .00006399  00000-0  41954-3 0  9996,2 53404  53.2157 206.9588 0001026  96.3603 263.7506 15.08858380 38146,6917.824,95.436,540.399,538.979,0.0
53404.0,STARLINK-4509,PAYLOAD,2023-04-11 16:47:58,15.08864131,0.0001028,53.2157,206.0672,89.6913,270.4197,0.00077117,0.00012015,0.0,0 STARLINK-4509,1 53404U 22097S   23101.69998529  .00012015  00000-0  77117-3 0  9995,2 53404  53.2157 206.0672 0001028  89.6913 270.4197 15.08864131 38177,6917.807,95.436,540.383,538.96,0.0
53404.0,STARLINK-4509,PAYLOAD,2023-04-12 13:27:59,15.08841531,7.44e-05,53.2156,202.2021,101.8498,258.2578,0.00015129,2.121e-05,0.0,0 STARLINK-4509,1 53404U 22097S   23102.56111011  .00002121  00000-0  15129-3 0  9997,2 53404  53.2156 202.2021 0000744 101.8498 258.2578 15.08841531 37817,6917.876,95.437,540.255,539.226,0.0
53404.0,STARLINK-4509,PAYLOAD,2023-04-13 05:21:51,15.08832783,8.87e-05,53.2161,199.2286,82.8601,277.2492,0.00059835,9.246e-05,0.0,0 STARLINK-4509,1 53404U 22097S   23103.22351540  .00009246  00000-0  59835-3 0  9991,2 53404  53.2161 199.2286 0000887  82.8601 277.2492 15.08832783 38404,6917.902,95.438,540.381,539.154,0.0
53404.0,STARLINK-4509,PAYLOAD,2023-04-14 11:34:11,15.08840318,0.0001081,53.2167,193.5795,96.5826,263.5289,0.00021751,3.176e-05,0.0,0 STARLINK-4509,1 53404U 22097S   23104.48207834  .00003176  00000-0  21751-3 0  9998,2 53404  53.2167 193.5795 0001081  96.5826 263.5289 15.08840318 38595,6917.879,95.438,540.492,538.997,0.0
53404.0,STARLINK-4509,PAYLOAD,2023-04-15 13:00:22,15.08841754,0.000117,53.2166,188.8214,103.8057,256.3065,0.00058888,9.097e-05,0.0,0 STARLINK-4509,1 53404U 22097S   23105.54192267  .00009097  00000-0  58888-3 0  9998,2 53404  53.2166 188.8214 0001170 103.8057 256.3065 15.08841754 38265,6917.875,95.437,540.549,538.931,0.0
53404.0,STARLINK-4509,PAYLOAD,2023-04-15 14:35:45,15.08850294,0.0001079,53.2156,188.523,100.3849,259.7264,0.00096984,0.00015185,0.0,0 STARLINK-4509,1 53404U 22097S   23105.60816181  .00015185  00000-0  96984-3 0  9997,2 53404  53.2156 188.5230 0001079 100.3849 259.7264 15.08850294 38760,6917.849,95.437,540.46,538.967,0.0
53404.0,STARLINK-4509,PAYLOAD,2023-04-16 12:51:08,15.08865863,9.76e-05,53.2154,184.3602,101.8577,258.2525,0.0015028,0.00023727,0.0,0 STARLINK-4509,1 53404U 22097S   23106.53551870  .00023727  00000-0  15028-2 0  9991,2 53404  53.2154 184.3602 0000976 101.8577 258.2525 15.08865863 38902,6917.801,95.436,540.342,538.991,0.0
53404.0,STARLINK-4509,PAYLOAD,2023-04-17 11:06:34,15.08806796,0.0001617,53.2154,180.1976,75.8193,284.2978,0.0016726,0.00026408,0.0,0 STARLINK-4509,1 53404U 22097S   23107.46290308  .00026408  00000-0  16726-2 0  9995,2 53404  53.2154 180.1976 0001617  75.8193 284.2978 15.08806796 38559,6917.982,95.44,540.966,538.728,0.0
53404.0,STARLINK-4509,PAYLOAD,2023-04-17 14:17:21,15.08818013,0.0001757,53.2152,179.6028,76.1247,283.994,0.0028236,0.00044909,0.0,0 STARLINK-4509,1 53404U 22097S   23107.59538686  .00044909  00000-0  28236-2 0  9998,2 53404  53.2152 179.6028 0001757  76.1247 283.9940 15.08818013 39064,6917.948,95.439,541.028,538.597,0.0
53404.0,STARLINK-4509,PAYLOAD,2023-04-18 09:21:58,15.0888282,0.0001685,53.2156,176.0343,75.1622,284.9557,0.002424,0.00038547,0.0,0 STARLINK-4509,1 53404U 22097S   23108.39025877  .00038547  00000-0  24240-2 0  9992,2 53404  53.2156 176.0343 0001685  75.1622 284.9557 15.08882820 39180,6917.75,95.435,540.78,538.449,0.0
53404.0,STARLINK-4509,PAYLOAD,2023-04-19 04:26:35,15.08887403,0.0001514,53.2152,172.4659,70.2888,289.8267,0.0024039,0.00038228,0.0,0 STARLINK-4509,1 53404U 22097S   23109.18512983  .00038228  00000-0  24039-2 0  9991,2 53404  53.2152 172.4659 0001514  70.2888 289.8267 15.08887403 38810,6917.736,95.435,540.648,538.553,0.0
53404.0,STARLINK-4509,PAYLOAD,2023-04-19 09:12:44,15.08859112,0.0001301,53.2157,171.574,75.6923,284.4214,0.0021076,0.00033431,0.0,0 STARLINK-4509,1 53404U 22097S   23109.38384679  .00033431  00000-0  21076-2 0  9991,2 53404  53.2157 171.5740 0001301  75.6923 284.4214 15.08859112 39336,6917.822,95.436,540.587,538.787,0.0
53404.0,STARLINK-4509,PAYLOAD,2023-04-19 15:34:16,15.08871519,0.0001377,53.2169,170.3842,79.671,280.4437,0.00099128,0.00015537,0.0,0 STARLINK-4509,1 53404U 22097S   23109.64880279  .00015537  00000-0  99128-3 0  9998,2 53404  53.2169 170.3842 0001377  79.6710 280.4437 15.08871519 39372,6917.784,95.436,540.602,538.696,0.0
53404.0,STARLINK-4509,PAYLOAD,2023-04-20 04:17:22,15.08838784,8.76e-05,53.2174,168.0083,71.2538,288.8549,0.00058082,8.968e-05,0.0,0 STARLINK-4509,1 53404U 22097S   23110.17872758  .00008968  00000-0  58082-3 0  9995,2 53404  53.2174 168.0083 0000876  71.2538 288.8549 15.08838784 38965,6917.884,95.438,540.355,539.143,0.0
53404.0,STARLINK-4509,PAYLOAD,2023-04-20 09:03:31,15.08840364,0.0001368,53.2163,167.1152,95.681,264.4339,0.00043806,6.691e-05,0.0,0 STARLINK-4509,1 53404U 22097S   23110.37744698  .00006691  00000-0  43806-3 0  9997,2 53404  53.2163 167.1152 0001368  95.6810 264.4339 15.08840364 39482,6917.879,95.438,540.691,538.798,0.0
53404.0,STARLINK-4509,PAYLOAD,2023-04-20 20:11:13,15.08846322,0.0001355,53.2163,165.0322,96.2579,263.8567,0.00020604,2.993e-05,0.0,0 STARLINK-4509,1 53404U 22097S   23110.84112545  .00002993  00000-0  20604-3 0  9991,2 53404  53.2163 165.0322 0001355  96.2579 263.8567 15.08846322 39557,6917.861,95.437,540.663,538.789,0.0
53404.0,STARLINK-4509,PAYLOAD,2023-04-21 04:08:09,15.08834317,0.0001569,53.2159,163.5457,105.6289,254.4877,5.617e-05,6.06e-06,0.0,0 STARLINK-4509,1 53404U 22097S   23111.17233116  .00000606  00000-0  56170-4 0  9993,2 53404  53.2159 163.5457 0001569 105.6289 254.4877 15.08834317 39117,6917.898,95.438,540.848,538.677,0.0
53404.0,STARLINK-4509,PAYLOAD,2023-04-21 12:05:05,15.08836098,0.0001464,53.216,162.0596,101.1507,258.965,9.3315e-05,1.197e-05,0.0,0 STARLINK-4509,1 53404U 22097S   23111.50353258  .00001197  00000-0  93315-4 0  9998,2 53404  53.2160 162.0596 0001464 101.1507 258.9650 15.08836098 39650,6917.892,95.438,540.77,538.745,0.0
53404.0,STARLINK-4509,PAYLOAD,2023-04-21 20:02:00,15.08840406,0.0001327,53.215,160.5717,98.591,261.5233,0.00013623,1.881e-05,0.0,0 STARLINK-4509,1 53404U 22097S   23111.83473193  .00001881  00000-0  13623-3 0  9998,2 53404  53.2150 160.5717 0001327  98.5910 261.5233 15.08840406 39703,6917.879,95.438,540.662,538.826,0.0
53404.0,STARLINK-4509,PAYLOAD,2023-04-22 02:23:33,15.08843327,0.0001196,53.2151,159.3814,97.3845,262.7283,0.00023316,3.425e-05,0.0,0 STARLINK-4509,1 53404U 22097S   23112.09969074  .00003425  00000-0  23316-3 0  9991,2 53404  53.2151 159.3814 0001196  97.3845 262.7283 15.08843327 39743,6917.87,95.437,540.563,538.908,0.0
53404.0,STARLINK-4509,PAYLOAD,2023-04-22 10:20:28,15.08847553,0.0001217,53.2146,157.8949,97.7689,262.3441,0.00028239,4.21e-05,0.0,0 STARLINK-4509,1 53404U 22097S   23112.43088889  .00004210  00000-0  28239-3 0  9997,2 53404  53.2146 157.8949 0001217  97.7689 262.3441 15.08847553 39302,6917.857,95.437,540.564,538.88,0.0
53404.0,STARLINK-4509,PAYLOAD,2023-04-23 11:46:39,15.08840321,0.0001147,53.2146,153.1367,94.8078,265.3045,5.9938e-05,6.66e-06,0.0,0 STARLINK-4509,1 53404U 22097S   23113.49073156  .00000666  00000-0  59938-4 0  9997,2 53404  53.2146 153.1367 0001147  94.8078 265.3045 15.08840321 39463,6917.879,95.438,540.538,538.951,0.0
53404.0,STARLINK-4509,PAYLOAD,2023-04-24 03:40:30,15.08857668,0.0001366,53.2147,150.1632,86.6529,273.4619,0.00042577,6.498e-05,0.0,0 STARLINK-4509,1 53404U 22097S   23114.15312844  .00006498  00000-0  42577-3 0  9990,2 53404  53.2147 150.1632 0001366  86.6529 273.4619 15.08857668 40055,6917.826,95.436,540.636,538.746,0.0
53404.0,STARLINK-4509,PAYLOAD,2023-04-25 11:28:13,15.08828429,0.0001547,53.2156,144.2138,96.7059,263.4109,-0.00015534,-2.759e-05,0.0,0 STARLINK-4509,1 53404U 22097S   23115.47793129 -.00002759  00000-0 -15534-3 0  9996,2 53404  53.2156 144.2138 0001547  96.7059 263.4109 15.08828429 40259,6917.916,95.438,540.851,538.711,0.0
53404.0,STARLINK-4509,PAYLOAD,2023-04-26 11:19:00,15.0883196,0.0001463,53.2155,139.7543,99.0003,261.1155,0.00030053,4.497e-05,0.0,0 STARLINK-4509,1 53404U 22097S   23116.47153920  .00004497  00000-0  30053-3 0  9998,2 53404  53.2155 139.7543 0001463  99.0003 261.1155 15.08831960 40406,6917.905,95.438,540.782,538.758,0.0
53404.0,STARLINK-4509,PAYLOAD,2023-04-27 04:48:15,15.0884202,0.0001434,53.2157,136.4832,99.7768,260.3386,0.00030352,4.546e-05,0.0,0 STARLINK-4509,1 53404U 22097S   23117.20017738  .00004546  00000-0  30352-3 0  9993,2 53404  53.2157 136.4832 0001434  99.7768 260.3386 15.08842020 40020,6917.874,95.437,540.731,538.747,0.0
53404.0,STARLINK-4509,PAYLOAD,2023-04-27 12:45:10,15.08847408,0.0001407,53.2158,134.9968,97.0902,263.025,0.00032998,4.969e-05,0.0,0 STARLINK-4509,1 53404U 22097S   23117.53137485  .00004969  00000-0  32998-3 0  9998,2 53404  53.2158 134.9968 0001407  97.0902 263.0250 15.08847408 40569,6917.858,95.437,540.696,538.749,0.0
53404.0,STARLINK-4509,PAYLOAD,2023-04-28 06:14:25,15.08844819,0.0001614,53.2162,131.7247,109.9779,250.1387,0.00013802,1.91e-05,0.0,0 STARLINK-4509,1 53404U 22097S   23118.26001345  .00001910  00000-0  13802-3 0  9990,2 53404  53.2162 131.7247 0001614 109.9779 250.1387 15.08844819 40183,6917.866,95.437,540.847,538.614,0.0
